ONEWEB-0707             
1 61612U 24188U   26035.12771190  .00000499  00000+0  13944-2 0  9997
2 61612  87.8765  62.7658 0002263 107.7466 252.3908 13.10376650 65896
ONEWEB-0708             
1 61613U 24188V   26035.14598113  .00000423  00000+0  11759-2 0  9991
2 61613  87.8753  62.7924 0002399  91.0366 269.1036 13.10368862 65876
